[{"OBJECT_NAME":"STARLINK-4256","OBJECT_ID":"2022-076J","EPOCH":"2025-09-03T07:22:27.077376","MEAN_MOTION":15.08845602,"ECCENTRICITY":0.00014071,"INCLINATION":53.2159,"RA_OF_ASC_NODE":215.3134,"ARG_OF_PERICENTER":81.4008,"MEAN_ANOMALY":278.7144,"EPHEMERIS_TYPE":0,"CLASSIFICATION_TYPE":"U","NORAD_CAT_ID":52994,"ELEMENT_SET_NO":999,"REV_AT_EPOCH":17455,"BSTAR":0.0001072749,"MEAN_MOTION_DOT":1.42e-5,"MEAN_MOTION_DDOT":0},{"OBJECT_NAME":"STARLINK-4296","OBJECT_ID":"2022-076K","EPOCH":"2025-09-03T15:08:46.461984","MEAN_MOTION":15.08840146,"ECCENTRICITY":3.36e-5,"INCLINATION":53.2188,"RA_OF_ASC_NODE":213.8614,"ARG_OF_PERICENTER":239.9076,"MEAN_ANOMALY":120.1883,"EPHEMERIS_TYPE":0,"CLASSIFICATION_TYPE":"U","NORAD_CAT_ID":52995,"ELEMENT_SET_NO":999,"REV_AT_EPOCH":17460,"BSTAR":4.6718259e-5,"MEAN_MOTION_DOT":4.56e-6,"MEAN_MOTION_DDOT":0},{"OBJECT_NAME":"STARLINK-4295","OBJECT_ID":"2022-076L","EPOCH":"2025-09-03T04:44:53.719872","MEAN_MOTION":15.08846354,"ECCENTRICITY":0.00012977,"INCLINATION":53.2163,"RA_OF_ASC_NODE":216.0854,"ARG_OF_PERICENTER":91.0866,"MEAN_ANOMALY":269.0275,"EPHEMERIS_TYPE":0,"CLASSIFICATION_TYPE":"U","NORAD_CAT_ID":52996,"ELEMENT_SET_NO":999,"REV_AT_EPOCH":17453,"BSTAR":-0.00010688089,"MEAN_MOTION_DOT":-1.989e-5,"MEAN_MOTION_DDOT":0},{"OBJECT_NAME":"STARLINK-4254","OBJECT_ID":"2022-076N","EPOCH":"2025-09-03T14:52:53.604768","MEAN_MOTION":15.08837143,"ECCENTRICITY":0.00012031,"INCLINATION":53.2176,"RA_OF_ASC_NODE":213.8195,"ARG_OF_PERICENTER":91.7951,"MEAN_ANOMALY":268.3179,"EPHEMERIS_TYPE":0,"CLASSIFICATION_TYPE":"U","NORAD_CAT_ID":52998,"ELEMENT_SET_NO":999,"REV_AT_EPOCH":17460,"BSTAR":8.4710471e-5,"MEAN_MOTION_DOT":1.06e-5,"MEAN_MOTION_DDOT":0},{"OBJECT_NAME":"STARLINK-4217","OBJECT_ID":"2022-076P","EPOCH":"2025-09-03T14:42:17.253216","MEAN_MOTION":15.08840741,"ECCENTRICITY":0.00012725,"INCLINATION":53.2154,"RA_OF_ASC_NODE":213.9411,"ARG_OF_PERICENTER":81.9864,"MEAN_ANOMALY":278.1273,"EPHEMERIS_TYPE":0,"CLASSIFICATION_TYPE":"U","NORAD_CAT_ID":52999,"ELEMENT_SET_NO":999,"REV_AT_EPOCH":17460,"BSTAR":3.7155157e-5,"MEAN_MOTION_DOT":3.04e-6,"MEAN_MOTION_DDOT":0},{"OBJECT_NAME":"STARLINK-4194","OBJECT_ID":"2022-076Q","EPOCH":"2025-09-03T15:03:30.156768","MEAN_MOTION":15.08831344,"ECCENTRICITY":0.00015526,"INCLINATION":53.2169,"RA_OF_ASC_NODE":213.8756,"ARG_OF_PERICENTER":82.6557,"MEAN_ANOMALY":277.4611,"EPHEMERIS_TYPE":0,"CLASSIFICATION_TYPE":"U","NORAD_CAT_ID":53000,"ELEMENT_SET_NO":999,"REV_AT_EPOCH":17460,"BSTAR":-5.5221557e-5,"MEAN_MOTION_DOT":-1.167e-5,"MEAN_MOTION_DDOT":0},{"OBJECT_NAME":"STARLINK-4190","OBJECT_ID":"2022-076R","EPOCH":"2025-09-03T14:36:59.290848","MEAN_MOTION":15.08843971,"ECCENTRICITY":0.00014673,"INCLINATION":53.2153,"RA_OF_ASC_NODE":213.9591,"ARG_OF_PERICENTER":92.5493,"MEAN_ANOMALY":267.5668,"EPHEMERIS_TYPE":0,"CLASSIFICATION_TYPE":"U","NORAD_CAT_ID":53001,"ELEMENT_SET_NO":999,"REV_AT_EPOCH":17460,"BSTAR":0.00011679551,"MEAN_MOTION_DOT":1.572e-5,"MEAN_MOTION_DDOT":0},{"OBJECT_NAME":"STARLINK-4121","OBJECT_ID":"2022-076S","EPOCH":"2025-09-03T14:58:11.434080","MEAN_MOTION":15.08832735,"ECCENTRICITY":0.00016208,"INCLINATION":53.2172,"RA_OF_ASC_NODE":213.8908,"ARG_OF_PERICENTER":75.5263,"MEAN_ANOMALY":284.5909,"EPHEMERIS_TYPE":0,"CLASSIFICATION_TYPE":"U","NORAD_CAT_ID":53002,"ELEMENT_SET_NO":999,"REV_AT_EPOCH":17460,"BSTAR":-6.9170034e-5,"MEAN_MOTION_DOT":-1.388e-5,"MEAN_MOTION_DDOT":0},{"OBJECT_NAME":"STARLINK-4255","OBJECT_ID":"2022-076T","EPOCH":"2025-09-03T14:26:25.204704","MEAN_MOTION":15.08831954,"ECCENTRICITY":0.00021873,"INCLINATION":53.217,"RA_OF_ASC_NODE":213.99,"ARG_OF_PERICENTER":97.7019,"MEAN_ANOMALY":262.4222,"EPHEMERIS_TYPE":0,"CLASSIFICATION_TYPE":"U","NORAD_CAT_ID":53003,"ELEMENT_SET_NO":999,"REV_AT_EPOCH":17460,"BSTAR":2.442517e-6,"MEAN_MOTION_DOT":-2.49e-6,"MEAN_MOTION_DDOT":0},{"OBJECT_NAME":"STARLINK-4253","OBJECT_ID":"2022-076U","EPOCH":"2025-09-03T14:47:35.680416","MEAN_MOTION":15.08835414,"ECCENTRICITY":0.00013533,"INCLINATION":53.2177,"RA_OF_ASC_NODE":213.9247,"ARG_OF_PERICENTER":89.2256,"MEAN_ANOMALY":270.8891,"EPHEMERIS_TYPE":0,"CLASSIFICATION_TYPE":"U","NORAD_CAT_ID":53004,"ELEMENT_SET_NO":999,"REV_AT_EPOCH":17460,"BSTAR":-2.5091726e-5,"MEAN_MOTION_DOT":-6.87e-6,"MEAN_MOTION_DDOT":0},{"OBJECT_NAME":"STARLINK-4288","OBJECT_ID":"2022-076V","EPOCH":"2025-09-03T07:59:32.465760","MEAN_MOTION":15.08844865,"ECCENTRICITY":0.00015028,"INCLINATION":53.2158,"RA_OF_ASC_NODE":215.1981,"ARG_OF_PERICENTER":92.0044,"MEAN_ANOMALY":268.112,"EPHEMERIS_TYPE":0,"CLASSIFICATION_TYPE":"U","NORAD_CAT_ID":53005,"ELEMENT_SET_NO":999,"REV_AT_EPOCH":17456,"BSTAR":6.0481174e-5,"MEAN_MOTION_DOT":6.75e-6,"MEAN_MOTION_DDOT":0},{"OBJECT_NAME":"STARLINK-4290","OBJECT_ID":"2022-076W","EPOCH":"2025-09-03T14:31:41.467584","MEAN_MOTION":15.08837504,"ECCENTRICITY":0.00014128,"INCLINATION":53.2157,"RA_OF_ASC_NODE":213.9755,"ARG_OF_PERICENTER":88.8981,"MEAN_ANOMALY":271.2173,"EPHEMERIS_TYPE":0,"CLASSIFICATION_TYPE":"U","NORAD_CAT_ID":53006,"ELEMENT_SET_NO":999,"REV_AT_EPOCH":17460,"BSTAR":3.5186044e-5,"MEAN_MOTION_DOT":2.72e-6,"MEAN_MOTION_DDOT":0},{"OBJECT_NAME":"STARLINK-4215","OBJECT_ID":"2022-076X","EPOCH":"2025-09-03T04:38:10.593888","MEAN_MOTION":15.08842324,"ECCENTRICITY":0.00014437,"INCLINATION":53.2165,"RA_OF_ASC_NODE":215.8263,"ARG_OF_PERICENTER":88.7058,"MEAN_ANOMALY":271.41,"EPHEMERIS_TYPE":0,"CLASSIFICATION_TYPE":"U","NORAD_CAT_ID":53007,"ELEMENT_SET_NO":999,"REV_AT_EPOCH":17454,"BSTAR":9.952557e-5,"MEAN_MOTION_DOT":1.296e-5,"MEAN_MOTION_DDOT":0},{"OBJECT_NAME":"STARLINK-4275","OBJECT_ID":"2022-076Y","EPOCH":"2025-09-03T04:43:27.938496","MEAN_MOTION":15.08848277,"ECCENTRICITY":0.00013014,"INCLINATION":53.2155,"RA_OF_ASC_NODE":215.7998,"ARG_OF_PERICENTER":85.0897,"MEAN_ANOMALY":275.0244,"EPHEMERIS_TYPE":0,"CLASSIFICATION_TYPE":"U","NORAD_CAT_ID":53008,"ELEMENT_SET_NO":999,"REV_AT_EPOCH":17454,"BSTAR":4.5793562e-5,"MEAN_MOTION_DOT":4.41e-6,"MEAN_MOTION_DDOT":0},{"OBJECT_NAME":"STARLINK-4277","OBJECT_ID":"2022-076Z","EPOCH":"2025-09-03T13:50:33.894816","MEAN_MOTION":15.08879662,"ECCENTRICITY":0.0001378,"INCLINATION":53.2172,"RA_OF_ASC_NODE":204.105,"ARG_OF_PERICENTER":92.5717,"MEAN_ANOMALY":267.5433,"EPHEMERIS_TYPE":0,"CLASSIFICATION_TYPE":"U","NORAD_CAT_ID":53009,"ELEMENT_SET_NO":999,"REV_AT_EPOCH":17473,"BSTAR":0.00036301356,"MEAN_MOTION_DOT":5.5e-5,"MEAN_MOTION_DDOT":0},{"OBJECT_NAME":"STARLINK-4263","OBJECT_ID":"2022-076AA","EPOCH":"2025-09-03T15:14:02.432832","MEAN_MOTION":15.08838348,"ECCENTRICITY":0.00012385,"INCLINATION":53.2173,"RA_OF_ASC_NODE":213.5724,"ARG_OF_PERICENTER":83.6111,"MEAN_ANOMALY":276.5022,"EPHEMERIS_TYPE":0,"CLASSIFICATION_TYPE":"U","NORAD_CAT_ID":53010,"ELEMENT_SET_NO":999,"REV_AT_EPOCH":17461,"BSTAR":3.8725909e-5,"MEAN_MOTION_DOT":3.28e-6,"MEAN_MOTION_DDOT":0}]
