STARLINK-4256           
1 52994U 22076J   25246.30725784  .00001420  00000+0  10727-3 0  9997
2 52994  53.2159 215.3134 0001407  81.4008 278.7144 15.08845602174552
STARLINK-4296           
1 52995U 22076K   25246.63109331  .00000456  00000+0  46718-4 0  9996
2 52995  53.2188 213.8614 0000336 239.9076 120.1883 15.08840146174600
STARLINK-4295           
1 52996U 22076L   25246.19784398 -.00001989  00000+0 -10688-3 0  9990
2 52996  53.2163 216.0854 0001297  91.0866 269.0275 15.08846354174533
STARLINK-4254           
1 52998U 22076N   25246.62006487  .00001060  00000+0  84710-4 0  9992
2 52998  53.2176 213.8195 0001203  91.7951 268.3179 15.08837143174600
STARLINK-4217           
1 52999U 22076P   25246.61269969  .00000304  00000+0  37155-4 0  9999
2 52999  53.2154 213.9411 0001272  81.9864 278.1273 15.08840741174601
STARLINK-4194           
1 53000U 22076Q   25246.62743237 -.00001167  00000+0 -55222-4 0  9994
2 53000  53.2169 213.8756 0001552  82.6557 277.4611 15.08831344174607
STARLINK-4190           
1 53001U 22076R   25246.60901957  .00001572  00000+0  11680-3 0  9995
2 53001  53.2153 213.9591 0001467  92.5493 267.5668 15.08843971174604
STARLINK-4121           
1 53002U 22076S   25246.62374345 -.00001388  00000+0 -69170-4 0  9998
2 53002  53.2172 213.8908 0001620  75.5263 284.5909 15.08832735174607
STARLINK-4255           
1 53003U 22076T   25246.60168061 -.00000249  00000+0  24425-5 0  9992
2 53003  53.2170 213.9900 0002187  97.7019 262.4222 15.08831954174608
STARLINK-4253           
1 53004U 22076U   25246.61638519 -.00000687  00000+0 -25092-4 0  9991
2 53004  53.2177 213.9247 0001353  89.2256 270.8891 15.08835414174603
STARLINK-4288           
1 53005U 22076V   25246.33301465  .00000675  00000+0  60481-4 0  9994
2 53005  53.2158 215.1981 0001502  92.0044 268.1120 15.08844865174565
STARLINK-4290           
1 53006U 22076W   25246.60534106  .00000272  00000+0  35186-4 0  9992
2 53006  53.2157 213.9755 0001412  88.8981 271.2173 15.08837504174603
STARLINK-4215           
1 53007U 22076X   25246.19317817  .00001296  00000+0  99526-4 0  9990
2 53007  53.2165 215.8263 0001443  88.7058 271.4100 15.08842324174547
STARLINK-4275           
1 53008U 22076Y   25246.19685114  .00000441  00000+0  45794-4 0  9998
2 53008  53.2155 215.7998 0001301  85.0897 275.0244 15.08848277174547
STARLINK-4277           
1 53009U 22076Z   25246.57678119  .00005500  00000+0  36301-3 0  9992
2 53009  53.2172 204.1050 0001378  92.5717 267.5433 15.08879662174735
STARLINK-4263           
1 53010U 22076AA  25246.63475038  .00000328  00000+0  38726-4 0  9993
2 53010  53.2173 213.5724 0001238  83.6111 276.5022 15.08838348174611
